[{"OBJECT_NAME":"CUTE-1.7+APD II (CO-65)","OBJECT_ID":"2008-021C","EPOCH":"2026-04-27T04:42:43.024320","MEAN_MOTION":15.08959991,"ECCENTRICITY":0.00084305,"INCLINATION":97.8254,"RA_OF_ASC_NODE":97.5835,"ARG_OF_PERICENTER":189.8816,"MEAN_ANOMALY":170.2248,"EPHEMERIS_TYPE":0,"CLASSIFICATION_TYPE":"U","NORAD_CAT_ID":32785,"ELEMENT_SET_NO":999,"REV_AT_EPOCH":97750,"BSTAR":0.00039116027,"MEAN_MOTION_DOT":6.116e-5,"MEAN_MOTION_DDOT":0},{"OBJECT_NAME":"SEEDS II (CO-66)","OBJECT_ID":"2008-021J","EPOCH":"2026-04-26T22:08:21.796800","MEAN_MOTION":15.30966474,"ECCENTRICITY":0.000499,"INCLINATION":97.7528,"RA_OF_ASC_NODE":112.4472,"ARG_OF_PERICENTER":113.7428,"MEAN_ANOMALY":246.4336,"EPHEMERIS_TYPE":0,"CLASSIFICATION_TYPE":"U","NORAD_CAT_ID":32791,"ELEMENT_SET_NO":999,"REV_AT_EPOCH":97944,"BSTAR":0.00068577,"MEAN_MOTION_DOT":0.00020476,"MEAN_MOTION_DDOT":0},{"OBJECT_NAME":"YUBILEINY (RS30)","OBJECT_ID":"2008-025A","EPOCH":"2026-04-27T05:40:17.192640","MEAN_MOTION":12.43177672,"ECCENTRICITY":0.00206279,"INCLINATION":82.5073,"RA_OF_ASC_NODE":27.1289,"ARG_OF_PERICENTER":63.069,"MEAN_ANOMALY":297.2494,"EPHEMERIS_TYPE":0,"CLASSIFICATION_TYPE":"U","NORAD_CAT_ID":32953,"ELEMENT_SET_NO":999,"REV_AT_EPOCH":81336,"BSTAR":-9.1212629e-5,"MEAN_MOTION_DOT":-3.0e-8,"MEAN_MOTION_DDOT":0},{"OBJECT_NAME":"KKS-1 (KISEKI)","OBJECT_ID":"2009-002H","EPOCH":"2026-04-27T05:59:41.929440","MEAN_MOTION":14.82988356,"ECCENTRICITY":0.00093342,"INCLINATION":98.1192,"RA_OF_ASC_NODE":38.8907,"ARG_OF_PERICENTER":94.3149,"MEAN_ANOMALY":265.9131,"EPHEMERIS_TYPE":0,"CLASSIFICATION_TYPE":"U","NORAD_CAT_ID":33499,"ELEMENT_SET_NO":999,"REV_AT_EPOCH":92864,"BSTAR":0.00019375661,"MEAN_MOTION_DOT":1.519e-5,"MEAN_MOTION_DDOT":0},{"OBJECT_NAME":"SWISSCUBE","OBJECT_ID":"2009-051B","EPOCH":"2026-04-27T04:42:07.137216","MEAN_MOTION":14.62379488,"ECCENTRICITY":0.00073261,"INCLINATION":98.4066,"RA_OF_ASC_NODE":24.1928,"ARG_OF_PERICENTER":22.0069,"MEAN_ANOMALY":338.1445,"EPHEMERIS_TYPE":0,"CLASSIFICATION_TYPE":"U","NORAD_CAT_ID":35932,"ELEMENT_SET_NO":999,"REV_AT_EPOCH":88170,"BSTAR":0.00024233332,"MEAN_MOTION_DOT":1.176e-5,"MEAN_MOTION_DDOT":0},{"OBJECT_NAME":"BEESAT-1","OBJECT_ID":"2009-051C","EPOCH":"2026-04-27T04:17:53.670624","MEAN_MOTION":14.61634123,"ECCENTRICITY":0.00060825,"INCLINATION":98.3995,"RA_OF_ASC_NODE":23.917,"ARG_OF_PERICENTER":37.0344,"MEAN_ANOMALY":323.1275,"EPHEMERIS_TYPE":0,"CLASSIFICATION_TYPE":"U","NORAD_CAT_ID":35933,"ELEMENT_SET_NO":999,"REV_AT_EPOCH":88173,"BSTAR":0.0002062656,"MEAN_MOTION_DOT":9.77e-6,"MEAN_MOTION_DDOT":0},{"OBJECT_NAME":"ITUPSAT1","OBJECT_ID":"2009-051E","EPOCH":"2026-04-27T06:17:58.888032","MEAN_MOTION":14.60361119,"ECCENTRICITY":0.00084284,"INCLINATION":98.4081,"RA_OF_ASC_NODE":23.247,"ARG_OF_PERICENTER":43.7341,"MEAN_ANOMALY":316.4525,"EPHEMERIS_TYPE":0,"CLASSIFICATION_TYPE":"U","NORAD_CAT_ID":35935,"ELEMENT_SET_NO":999,"REV_AT_EPOCH":88130,"BSTAR":0.00019689594,"MEAN_MOTION_DOT":9.04e-6,"MEAN_MOTION_DDOT":0},{"OBJECT_NAME":"XIWANG-1 (HOPE-1)","OBJECT_ID":"2009-072B","EPOCH":"2026-04-27T07:47:14.737632","MEAN_MOTION":13.1643682,"ECCENTRICITY":0.0007537,"INCLINATION":100.3985,"RA_OF_ASC_NODE":71.9783,"ARG_OF_PERICENTER":355.2071,"MEAN_ANOMALY":4.8968,"EPHEMERIS_TYPE":0,"CLASSIFICATION_TYPE":"U","NORAD_CAT_ID":36122,"ELEMENT_SET_NO":999,"REV_AT_EPOCH":78631,"BSTAR":-0.0002922771,"MEAN_MOTION_DOT":-1.56e-6,"MEAN_MOTION_DDOT":0},{"OBJECT_NAME":"O/OREOS (USA 219)","OBJECT_ID":"2010-062C","EPOCH":"2026-04-27T07:05:22.062336","MEAN_MOTION":14.93535993,"ECCENTRICITY":0.00141272,"INCLINATION":71.9713,"RA_OF_ASC_NODE":195.5961,"ARG_OF_PERICENTER":171.322,"MEAN_ANOMALY":188.8198,"EPHEMERIS_TYPE":0,"CLASSIFICATION_TYPE":"U","NORAD_CAT_ID":37224,"ELEMENT_SET_NO":999,"REV_AT_EPOCH":10904,"BSTAR":0.00025254766,"MEAN_MOTION_DOT":2.605e-5,"MEAN_MOTION_DDOT":0},{"OBJECT_NAME":"JUGNU","OBJECT_ID":"2011-058B","EPOCH":"2026-04-27T01:47:32.441856","MEAN_MOTION":14.13760916,"ECCENTRICITY":0.00184449,"INCLINATION":19.9609,"RA_OF_ASC_NODE":258.9531,"ARG_OF_PERICENTER":232.1045,"MEAN_ANOMALY":287.2974,"EPHEMERIS_TYPE":0,"CLASSIFICATION_TYPE":"U","NORAD_CAT_ID":37839,"ELEMENT_SET_NO":999,"REV_AT_EPOCH":75178,"BSTAR":0.00010019084,"MEAN_MOTION_DOT":4.59e-6,"MEAN_MOTION_DDOT":0},{"OBJECT_NAME":"SRMSAT","OBJECT_ID":"2011-058D","EPOCH":"2026-04-27T00:54:28.125792","MEAN_MOTION":14.11563246,"ECCENTRICITY":0.00116824,"INCLINATION":19.9735,"RA_OF_ASC_NODE":9.0653,"ARG_OF_PERICENTER":1.6221,"MEAN_ANOMALY":43.592,"EPHEMERIS_TYPE":0,"CLASSIFICATION_TYPE":"U","NORAD_CAT_ID":37841,"ELEMENT_SET_NO":999,"REV_AT_EPOCH":75058,"BSTAR":7.9942613e-5,"MEAN_MOTION_DOT":4.12e-6,"MEAN_MOTION_DDOT":0},{"OBJECT_NAME":"STRAND-1","OBJECT_ID":"2013-009E","EPOCH":"2026-04-26T11:10:40.191744","MEAN_MOTION":14.37131572,"ECCENTRICITY":0.00092207,"INCLINATION":98.3914,"RA_OF_ASC_NODE":297.9758,"ARG_OF_PERICENTER":32.965,"MEAN_ANOMALY":327.211,"EPHEMERIS_TYPE":0,"CLASSIFICATION_TYPE":"U","NORAD_CAT_ID":39090,"ELEMENT_SET_NO":999,"REV_AT_EPOCH":68963,"BSTAR":0.00011755274,"MEAN_MOTION_DOT":3.07e-6,"MEAN_MOTION_DDOT":0},{"OBJECT_NAME":"ZACUBE-1 (TSHEPISOSAT)","OBJECT_ID":"2013-066B","EPOCH":"2026-04-27T03:25:17.155488","MEAN_MOTION":15.00757321,"ECCENTRICITY":0.00440943,"INCLINATION":97.812,"RA_OF_ASC_NODE":79.2054,"ARG_OF_PERICENTER":63.8672,"MEAN_ANOMALY":296.7078,"EPHEMERIS_TYPE":0,"CLASSIFICATION_TYPE":"U","NORAD_CAT_ID":39417,"ELEMENT_SET_NO":999,"REV_AT_EPOCH":67307,"BSTAR":0.00044396247,"MEAN_MOTION_DOT":5.686e-5,"MEAN_MOTION_DDOT":0},{"OBJECT_NAME":"GOMX-1","OBJECT_ID":"2013-066Q","EPOCH":"2026-04-27T07:35:01.369248","MEAN_MOTION":14.69263404,"ECCENTRICITY":0.01276322,"INCLINATION":97.6529,"RA_OF_ASC_NODE":320.9826,"ARG_OF_PERICENTER":240.6296,"MEAN_ANOMALY":118.2116,"EPHEMERIS_TYPE":0,"CLASSIFICATION_TYPE":"U","NORAD_CAT_ID":39430,"ELEMENT_SET_NO":999,"REV_AT_EPOCH":66244,"BSTAR":0.00024318611,"MEAN_MOTION_DOT":1.571e-5,"MEAN_MOTION_DDOT":0},{"OBJECT_NAME":"CUBEBUG-2 (LO-74)","OBJECT_ID":"2013-066AA","EPOCH":"2026-04-27T06:44:02.239008","MEAN_MOTION":14.93400353,"ECCENTRICITY":0.0057425,"INCLINATION":97.8874,"RA_OF_ASC_NODE":66.0709,"ARG_OF_PERICENTER":194.5511,"MEAN_ANOMALY":165.4058,"EPHEMERIS_TYPE":0,"CLASSIFICATION_TYPE":"U","NORAD_CAT_ID":39440,"ELEMENT_SET_NO":999,"REV_AT_EPOCH":66939,"BSTAR":0.00040001365,"MEAN_MOTION_DOT":4.276e-5,"MEAN_MOTION_DDOT":0},{"OBJECT_NAME":"FUNCUBE-1 (AO-73)","OBJECT_ID":"2013-066AE","EPOCH":"2026-04-26T20:52:12.795456","MEAN_MOTION":15.08754845,"ECCENTRICITY":0.00374138,"INCLINATION":97.824,"RA_OF_ASC_NODE":87.2818,"ARG_OF_PERICENTER":21.1117,"MEAN_ANOMALY":339.1645,"EPHEMERIS_TYPE":0,"CLASSIFICATION_TYPE":"U","NORAD_CAT_ID":39444,"ELEMENT_SET_NO":999,"REV_AT_EPOCH":67192,"BSTAR":0.00066839028,"MEAN_MOTION_DOT":0.00010608,"MEAN_MOTION_DDOT":0}]
