CUTE-1.7+APD II (CO-65) 
1 32785U 08021C   26117.19633130  .00006116  00000+0  39116-3 0  9995
2 32785  97.8254  97.5835 0008430 189.8816 170.2248 15.08959991977503
SEEDS II (CO-66)        
1 32791U 08021J   26116.92247450  .00020476  00000+0  68577-3 0  9996
2 32791  97.7528 112.4472 0004990 113.7428 246.4336 15.30966474979447
YUBILEINY (RS30)        
1 32953U 08025A   26117.23631010 -.00000003  00000+0 -91213-4 0  9994
2 32953  82.5073  27.1289 0020627  63.0690 297.2494 12.43177672813367
KKS-1 (KISEKI)          
1 33499U 09002H   26117.24979085  .00001519  00000+0  19376-3 0  9994
2 33499  98.1192  38.8907 0009334  94.3149 265.9131 14.82988356928644
SWISSCUBE               
1 35932U 09051B   26117.19591594  .00001176  00000+0  24233-3 0  9998
2 35932  98.4066  24.1928 0007326  22.0069 338.1445 14.62379488881704
BEESAT-1                
1 35933U 09051C   26117.17909341  .00000977  00000+0  20627-3 0  9991
2 35933  98.3995  23.9170 0006082  37.0344 323.1275 14.61634123881738
ITUPSAT1                
1 35935U 09051E   26117.26248713  .00000904  00000+0  19690-3 0  9990
2 35935  98.4081  23.2470 0008428  43.7341 316.4525 14.60361119881307
XIWANG-1 (HOPE-1)       
1 36122U 09072B   26117.32447613 -.00000156  00000+0 -29228-3 0  9998
2 36122 100.3985  71.9783 0007537 355.2071   4.8968 13.16436820786316
O/OREOS (USA 219)       
1 37224U 10062C   26117.29539424  .00002605  00000+0  25255-3 0  9996
2 37224  71.9713 195.5961 0014127 171.3220 188.8198 14.93535993109043
JUGNU                   
1 37839U 11058B   26117.07468104  .00000459  00000+0  10019-3 0  9993
2 37839  19.9609 258.9531 0018444 232.1045 287.2974 14.13760916751782
SRMSAT                  
1 37841U 11058D   26117.03782553  .00000412  00000+0  79943-4 0  9990
2 37841  19.9735   9.0653 0011682   1.6221  43.5920 14.11563246750583
STRAND-1                
1 39090U 13009E   26116.46574296  .00000307  00000+0  11755-3 0  9994
2 39090  98.3914 297.9758 0009220  32.9650 327.2110 14.37131572689634
ZACUBE-1 (TSHEPISOSAT)  
1 39417U 13066B   26117.14255967  .00005686  00000+0  44396-3 0  9999
2 39417  97.8120  79.2054 0044094  63.8672 296.7078 15.00757321673076
GOMX-1                  
1 39430U 13066Q   26117.31598807  .00001571  00000+0  24319-3 0  9998
2 39430  97.6529 320.9826 0127632 240.6296 118.2116 14.69263404662440
CUBEBUG-2 (LO-74)       
1 39440U 13066AA  26117.28058147  .00004276  00000+0  40001-3 0  9994
2 39440  97.8874  66.0709 0057425 194.5511 165.4058 14.93400353669396
FUNCUBE-1 (AO-73)       
1 39444U 13066AE  26116.86959254  .00010608  00000+0  66839-3 0  9993
2 39444  97.8240  87.2818 0037413  21.1117 339.1645 15.08754845671924
